satname,norad_id,inclination_deg,eccentricity,mean_motion_rev_per_day,perigee_km,apogee_km,l1,l2
STARLINK-1008,44714,53.1541,0.000175,15.46645914,425.3553493919226,427.73698850105393,1 44714U 19074B   26131.57346194  .00011800  00000+0  24102-3 0  9994,2 44714  53.1541 243.4554 0001750  19.1561 340.9513 15.46645914358549
STARLINK-1012,44718,53.1582,0.0001332,15.46826496,425.11024352244203,426.9228700299682,1 44718U 19074F   26131.76927254  .00011494  00000+0  23355-3 0  9999,2 44718  53.1582 242.8396 0001332  10.4310 349.6726 15.46826496358567
STARLINK-1017,44723,53.0483,0.0003804,15.29533075,474.5993378853518,479.8148836848377,1 44723U 19074L   26131.57590081  .00029828  00000+0  10360-2 0  9999,2 44723  53.0483 240.0765 0003804 302.7528  57.3104 15.29533075358579
STARLINK-1019,44724,53.0234,0.000857,16.23744042,203.76044376117443,215.05149240847277,1 44724U 19074M   26131.83311817  .01581773  11934-4  58533-3 0  9998,2 44724  53.0234 172.6491 0008570   0.4818 359.6228 16.23744042359523
STARLINK-1020,44725,53.1589,0.0001581,15.50869142,413.11330270872713,415.26103561101536,1 44725U 19074N   26131.10293471  .00064231  00000+0  10916-2 0  9997,2 44725  53.1589 271.0312 0001581 359.9826   0.1183 15.50869142358097
STARLINK-1036,44741,53.043,0.0002132,15.66560175,367.317005791213,370.19388072901893,1 44741U 19074AE  26131.69662374  .00034251  00000+0  32550-3 0  9999,2 44741  53.0430 240.6500 0002132 249.7088 110.3698 15.66560175358578
STARLINK-1039,44744,53.0621,7.77e-05,15.26842943,484.7237119227193,485.7902833499529,1 44744U 19074AH  26131.68797011  .00026701  00000+0  10084-2 0  9996,2 44744  53.0621 284.3878 0000777 351.7149   8.3836 15.26842943357965
STARLINK-1042,44747,53.0416,0.0003024,15.52890885,406.2382887783924,410.3427201330878,1 44747U 19074AL  26131.78250889  .00014055  00000+0  22939-3 0  9999,2 44747  53.0416 151.3179 0003024  27.7318 332.3852 15.52890885359869
STARLINK-1043,44748,53.0495,0.0001692,15.58086753,392.0489268003985,394.3403454260588,1 44748U 19074AM  26131.61056716  .00026857  00000+0  35618-3 0  9996,2 44748  53.0495 249.9279 0001692 296.4851  63.5987 15.58086753358440
STARLINK-1046,44751,53.0493,0.0004782,15.51848923,408.0811950602465,414.57463930704216,1 44751U 19074AQ  26131.64224421  .00039284  00000+0  64947-3 0  9998,2 44751  53.0493 269.9011 0004782 344.7016  15.3847 15.51848923358168
STARLINK-1047,44752,53.0686,0.0003746,15.33921738,461.5619936034045,466.6882163724613,1 44752U 19074AR  26131.39705153  .00003526  00000+0  11716-3 0  9993,2 44752  53.0686 212.7429 0003746  63.7906 296.3480 15.33921738358965
STARLINK-1048,44753,53.0455,0.0005634,15.64758166,370.1302430585347,377.7384770670542,1 44753U 19074AS  26131.65812581  .00031251  00000+0  31952-3 0  9997,2 44753  53.0455 222.4769 0005634 328.2572  31.8101 15.64758166358825
STARLINK-1063,44768,53.1566,5.62e-05,15.4658741,426.33533915800217,427.1002048343744,1 44768U 19074BH  26131.90864274  .00015140  00000+0  30729-3 0  9997,2 44768  53.1566 282.8678 0000562  65.5544 294.5523 15.46587410358030
STARLINK-1067,44771,53.0435,0.0005258,15.7095876,352.6147535736818,359.6965357187919,1 44771U 19074BL  26131.77013457  .00048280  00000+0  38051-3 0  9992,2 44771  53.0435 255.1091 0005258 281.9865  78.0562 15.70958760358380
STARLINK-1068,44772,53.0437,0.0001766,15.71805785,352.5472320199633,354.9249295921045,1 44772U 19074BM  26131.72433491  .00046120  00000+0  35130-3 0  9998,2 44772  53.0437 229.1384 0001766  66.7789 293.3414 15.71805785358739
STARLINK-1114,44927,53.0436,0.0001985,15.61296529,382.5686701094346,385.2532031402752,1 44927U 20001P   26131.95019730  .00071457  00000+0  82459-3 0  9990,2 44927  53.0436  23.0860 0001985  49.4325 310.6861 15.61296529349948
STARLINK-1123,44930,53.1457,0.0002584,15.54139769,402.9016947739501,406.4070413529662,1 44930U 20001S   26131.92419250  .00057825  00000+0  87514-3 0  9992,2 44930  53.1457  48.4271 0002584 159.7129 200.3985 15.54139769349593
STARLINK-1094,44941,53.1556,0.0001808,15.50860649,412.98391037762303,415.4400237641157,1 44941U 20001AD  26131.95421091  .00048918  00000+0  83510-3 0  9998,2 44941  53.1556  22.6314 0001808 169.0598 191.0452 15.50860649349969
STARLINK-1122,44949,53.1586,0.0001548,15.50668361,413.7219287343087,415.8250138162148,1 44949U 20001AM  26131.89574262  .00051249  00000+0  88025-3 0  9995,2 44949  53.1586  23.4561 0001548 179.2686 180.8326 15.50668361349946
STARLINK-1080,44961,53.0484,0.0001322,15.57809239,393.1035162192129,394.8940689227684,1 44961U 20001AZ  26131.82711505  .00071135  00000+0  93718-3 0  9996,2 44961  53.0484 344.0208 0001322 266.3535  93.7325 15.57809239350487
STARLINK-1090,44968,53.1516,0.0001368,15.47233718,423.8919864455229,425.7532762006522,1 44968U 20001BG  26131.94962305  .00042580  00000+0  82710-3 0  9994,2 44968  53.1516  10.2506 0001368 147.4018 212.7075 15.47233718350138
STARLINK-1132,45044,53.1537,0.0001054,15.52025298,410.0979738952374,411.5290846668104,1 45044U 20006A   26131.88214056  .00060778  00000+0  99208-3 0  9990,2 45044  53.1537 312.5714 0001054 124.5080 235.6030 15.52025298346715
STARLINK-1131,45047,53.1599,0.0001076,15.48982872,418.96882711161834,420.43172169306945,1 45047U 20006D   26131.90627125  .00054322  00000+0  98922-3 0  9991,2 45047  53.1599 344.6653 0001076 215.0635 145.0304 15.48982872346263
STARLINK-1134,45048,53.028,0.0004601,15.52619239,405.9592500312456,412.20484900061,1 45048U 20006E   26131.90284961  .00071526  00000+0  11396-2 0  9993,2 45048  53.0280 295.8180 0004601 359.8283   0.2723 15.52619239346935
STARLINK-1156,45054,53.1596,0.0001543,15.32818588,466.3513030301747,468.46383808464907,1 45054U 20006L   26131.88940712  .00030326  00000+0  95122-3 0  9993,2 45054  53.1596 347.1372 0001543 215.6515 144.4384 15.32818588346228
STARLINK-1166,45060,53.0483,0.0001109,15.55278542,400.5912186585392,402.0949073365109,1 45060U 20006S   26131.88006602  .00062489  00000+0  90608-3 0  9990,2 45060  53.0483 329.2935 0001109 209.5832 150.5115 15.55278542346468
STARLINK-1169,45061,53.1586,0.0003386,15.35849576,456.0833330815467,460.71303470808016,1 45061U 20006T   26131.91325890  .00039816  00000+0  11299-2 0  9994,2 45061  53.1586 346.2132 0003386 184.9376 175.1594 15.35849576346249
STARLINK-1171,45062,53.0426,0.000252,15.70927177,354.5488404179214,357.94296940199547,1 45062U 20006U   26131.20238913  .00047662  00000+0  37641-3 0  9994,2 45062  53.0426 301.5850 0002520 181.8751 178.2257 15.70927177346798
STARLINK-1133,45064,53.1601,0.0001342,15.32900106,466.2462363668328,468.083515390319,1 45064U 20006W   26131.92592609  .00029940  00000+0  93693-3 0  9998,2 45064  53.1601 323.7529 0001342 251.1423 108.9434 15.32900106346566
STARLINK-1167,45071,53.1578,0.0002609,15.35032215,459.0405238142357,462.6090940861468,1 45071U 20006AD  26131.77294412  .00028320  00000+0  82932-3 0  9995,2 45071  53.1578 323.9673 0002609 178.0919 182.0094 15.35032215346546
STARLINK-1168,45072,53.1593,0.0001552,15.32966316,465.90541161333476,468.03013213452414,1 45072U 20006AE  26131.90748288  .00034887  00000+0  10869-2 0  9990,2 45072  53.1593 324.0534 0001552 249.2501 110.8335 15.32966316346559
STARLINK-1172,45074,53.1567,0.0002828,15.36051641,455.86541171650333,459.73181689995545,1 45074U 20006AG  26131.81345077  .00040357  00000+0  11377-2 0  9995,2 45074  53.1567 323.3152 0002828 187.2352 172.8611 15.36051641346557
STARLINK-1153,45080,53.1599,0.0003264,15.35087545,458.42829083999186,462.89265783123847,1 45080U 20006AN  26131.82204125  .00041236  00000+0  11983-2 0  9991,2 45080  53.1599 323.6584 0003264 199.1304 160.9577 15.35087545346555
STARLINK-1151,45081,53.0512,0.0002504,15.73817884,346.31291116745797,349.68135914234335,1 45081U 20006AP  26130.71984000  .00056577  00000+0  39416-3 0  9992,2 45081  53.0512 293.3223 0002504 210.8033 149.2838 15.73817884346862
STARLINK-1185,45087,53.1611,0.00023,15.43151115,435.24863894108967,438.3835173570369,1 45087U 20006AV  26131.78389389  .00048300  00000+0  10760-2 0  9990,2 45087  53.1611 305.5456 0002300 268.4757  91.5986 15.43151115346801
STARLINK-1183,45088,53.1607,0.0001941,15.32752345,466.27604599863935,468.93356296714046,1 45088U 20006AW  26131.88386934 -.00060421  00000+0 -18874-2 0  9999,2 45088  53.1607 308.7437 0001941  73.5539 286.5676 15.32752345346761
STARLINK-1152,45096,53.0354,0.0002086,15.45885021,427.35893116689476,430.1987764611049,1 45096U 20006BE  26131.65003102  .00047383  00000+0  96239-3 0  9998,2 45096  53.0354 267.7754 0002086   5.5028 354.6001 15.45885021347305
STARLINK-1184,45098,53.0541,0.0002411,15.13194098,524.8018759263532,528.1312757706264,1 45098U 20006BG  26131.80116262  .00017860  00000+0  10088-2 0  9993,2 45098  53.0541 319.7193 0002411 336.4829  23.6053 15.13194098346588
STARLINK-1193,45100,53.0483,0.0003845,15.65333486,369.68429356914567,374.87536411052315,1 45100U 20006BJ  26131.40216961  .00034005  00000+0  33937-3 0  9999,2 45100  53.0483 284.5881 0003845 213.0375 147.0400 15.65333486347040
STARLINK-1143,45179,53.039,1.91e-05,15.80077448,330.0932883013502,330.34954759291577,1 45179U 20012B   26132.00002315  .00056108  00000+0  29651-3 0  9991,2 45179  53.0390  16.3363 0000191  64.5509   2.6847 15.80077448  5523
STARLINK-1202,45183,53.1544,0.0002908,15.3259443,466.0841642574187,470.06592118146364,1 45183U 20012F   26131.62949400  .00052264  00000+0  16377-2 0  9997,2 45183  53.1544 106.6487 0002908  69.1925 290.9388 15.32594430344598
STARLINK-1216,45185,53.1551,0.0003076,15.32842553,465.23055237350854,469.44188749841305,1 45185U 20012H   26131.22237477  .00036676  00000+0  11461-2 0  9997,2 45185  53.1551 108.4578 0003076  74.3990 285.7351 15.32842553344477
STARLINK-1225,45187,53.1556,0.0002694,15.32757833,465.74422536487964,469.43270224477783,1 45187U 20012K   26131.22009569  .00029194  00000+0  91801-3 0  9992,2 45187  53.1556 108.9204 0002694  71.4271 288.7023 15.32757833344510
